{
    "links": {
        "self": "http://www.neowsapp.com/rest/v1/neo/54053782?api_key=iIulBulltgU6a56xZRHN4H3l9WmuAYTsLGpBGhQ2"
    },
    "id": "54053782",
    "neo_reference_id": "54053782",
    "name": "(2020 RQ1)",
    "designation": "2020 RQ1",
    "nasa_jpl_url": "http://ssd.jpl.nasa.gov/sbdb.cgi?sstr=54053782",
    "absolute_magnitude_h": 23.223,
    "estimated_diameter": {
        "kilometers": {
            "estimated_diameter_min": 0.0602497122,
            "estimated_diameter_max": 0.1347224521
        },
        "meters": {
            "estimated_diameter_min": 60.2497121843,
            "estimated_diameter_max": 134.7224520689
        },
        "miles": {
            "estimated_diameter_min": 0.0374374239,
            "estimated_diameter_max": 0.0837126248
        },
        "feet": {
            "estimated_diameter_min": 197.6696657227,
            "estimated_diameter_max": 442.0028096457
        }
    },
    "is_potentially_hazardous_asteroid": false,
    "close_approach_data": [
        {
            "close_approach_date": "2002-10-21",
            "close_approach_date_full": "2002-Oct-21 13:26",
            "epoch_date_close_approach": 1035206760000,
            "relative_velocity": {
                "kilometers_per_second": "24.0295988922",
                "kilometers_per_hour": "86506.5560118642",
                "miles_per_hour": "53751.8097619275"
            },
            "miss_distance": {
                "astronomical": "0.4838893256",
                "lunar": "188.2329476584",
                "kilometers": "72388812.425496472",
                "miles": "44980322.2759444336"
            },
            "orbiting_body": "Earth"
        },
        {
            "close_approach_date": "2008-09-28",
            "close_approach_date_full": "2008-Sep-28 13:41",
            "epoch_date_close_approach": 1222609260000,
            "relative_velocity": {
                "kilometers_per_second": "14.2035911566",
                "kilometers_per_hour": "51132.928163909",
                "miles_per_hour": "31772.0130582911"
            },
            "miss_distance": {
                "astronomical": "0.1633752268",
                "lunar": "63.5529632252",
                "kilometers": "24440585.940046916",
                "miles": "15186675.8876268008"
            },
            "orbiting_body": "Earth"
        },
        {
            "close_approach_date": "2014-09-05",
            "close_approach_date_full": "2014-Sep-05 09:23",
            "epoch_date_close_approach": 1409908980000,
            "relative_velocity": {
                "kilometers_per_second": "9.9157315219",
                "kilometers_per_hour": "35696.6334790015",
                "miles_per_hour": "22180.4998414385"
            },
            "miss_distance": {
                "astronomical": "0.0321308846",
                "lunar": "12.4989141094",
                "kilometers": "4806711.897375802",
                "miles": "2986752.2754859876"
            },
            "orbiting_body": "Earth"
        },
        {
            "close_approach_date": "2020-09-05",
            "close_approach_date_full": "2020-Sep-05 23:35",
            "epoch_date_close_approach": 1599348900000,
            "relative_velocity": {
                "kilometers_per_second": "9.9544440309",
                "kilometers_per_hour": "35835.9985112392",
                "miles_per_hour": "22267.0958527197"
            },
            "miss_distance": {
                "astronomical": "0.037842301",
                "lunar": "14.720655089",
                "kilometers": "5661127.62549887",
                "miles": "3517661.590349606"
            },
            "orbiting_body": "Earth"
        },
        {
            "close_approach_date": "2026-10-04",
            "close_approach_date_full": "2026-Oct-04 22:45",
            "epoch_date_close_approach": 1791153900000,
            "relative_velocity": {
                "kilometers_per_second": "16.633681845",
                "kilometers_per_hour": "59881.2546419892",
                "miles_per_hour": "37207.8829190738"
            },
            "miss_distance": {
                "astronomical": "0.2616758715",
                "lunar": "101.7919140135",
                "kilometers": "39146153.006793705",
                "miles": "24324291.546034929"
            },
            "orbiting_body": "Earth"
        }
    ],
    "orbital_data": {
        "orbit_id": "20",
        "orbit_determination_date": "2020-10-12 07:28:10",
        "first_observation_date": "2020-09-06",
        "last_observation_date": "2020-10-12",
        "data_arc_in_days": 36,
        "observations_used": 185,
        "orbit_uncertainty": "5",
        "minimum_orbit_intersection": ".0151929",
        "jupiter_tisserand_invariant": "2.723",
        "epoch_osculation": "2459000.5",
        "eccentricity": ".689881053358035",
        "semi_major_axis": "3.305862818554675",
        "inclination": "5.569942158808673",
        "ascending_node_longitude": "333.0314131261037",
        "orbital_period": "2195.460707072348",
        "perihelion_distance": "1.025210695033013",
        "perihelion_argument": "357.2721052983197",
        "aphelion_distance": "5.586514942076336",
        "perihelion_time": "2459088.622022496410",
        "mean_anomaly": "345.550218231411",
        "mean_motion": ".1639746950789481",
        "equinox": "J2000",
        "orbit_class": {
            "orbit_class_type": "AMO",
            "orbit_class_description": "Near-Earth asteroid orbits similar to that of 1221 Amor",
            "orbit_class_range": "1.017 AU < q (perihelion) < 1.3 AU"
        }
    },
    "is_sentry_object": false
}